ONEWEB-0685             
1 54679U 22166AP  26153.71046566 -.00000023  00000+0 -87688-4 0  9997
2 54679  87.9253 246.8614 0002057  91.8632 268.2738 13.21819562169506
ONEWEB-0712             
1 54680U 22166AQ  26153.69659044 -.00000017  00000+0 -78664-4 0  9994
2 54680  87.9107 231.6514 0001799  86.3754 273.7583 13.16593633170157
ONEWEB-0714             
1 54681U 22166AR  26153.71526486 -.00001138  00000+0 -27879-2 0  9996
2 54681  87.9261 246.8566 0001979  92.9373 267.1987 13.21816919169620
ONEWEB-0532             
1 55140U 23004A   26153.14984615  .00000081  00000+0  17614-3 0  9999
2 55140  87.9144   8.8558 0002117  92.3929 267.7445 13.17647984165602
ONEWEB-0533             
1 55141U 23004B   26152.60007781 -.00000126  00000+0 -38623-3 0  9995
2 55141  87.8949 353.7712 0001949  83.5835 276.5516 13.12443718166016
ONEWEB-0541             
1 55142U 23004C   26153.68592091  .00000032  00000+0  54236-4 0  9991
2 55142  87.8910  23.9432 0001786  89.7104 270.4229 13.11419380164048
ONEWEB-0543             
1 55143U 23004D   26153.06444505  .00000100  00000+0  22156-3 0  9991
2 55143  87.9155 338.4802 0001648  84.6394 275.4926 13.18689179167705
ONEWEB-0544             
1 55144U 23004E   26152.52656743  .00000068  00000+0  14090-3 0  9992
2 55144  87.9156 338.5871 0001629  94.4759 265.6559 13.18686473167636
ONEWEB-0560             
1 55145U 23004F   26152.51982715  .00000028  00000+0  37853-4 0  9992
2 55145  87.9157 338.5777 0001537  90.0705 270.0603 13.18685814167643
ONEWEB-0565             
1 55146U 23004G   26152.43719669  .00000059  00000+0  11628-3 0  9995
2 55146  87.9147 338.6235 0001749 105.2566 254.8760 13.18686501167628
ONEWEB-0567             
1 55147U 23004H   26153.03746970 -.00000035  00000+0 -12254-3 0  9990
2 55147  87.9154 338.4866 0001625 101.6647 258.4668 13.18686072167707
ONEWEB-0569             
1 55148U 23004J   26152.46788902  .00000337  00000+0  88754-3 0  9999
2 55148  87.8952 323.3497 0000954 109.2321 250.8911 13.13468755168117
ONEWEB-0570             
1 55149U 23004K   26153.02902827  .00000034  00000+0  52663-4 0  9992
2 55149  87.9155 338.4866 0002120  98.2698 261.8674 13.18688403167691
ONEWEB-0571             
1 55150U 23004L   26153.02228428  .00000041  00000+0  71362-4 0  9997
2 55150  87.9154 338.4871 0001481 131.6352 228.4907 13.18688189167707
ONEWEB-0572             
1 55151U 23004M   26153.10427970 -.00000117  00000+0 -33390-3 0  9994
2 55151  87.9142   8.8661 0001763  92.9128 267.2205 13.17648560165497
ONEWEB-0573             
1 55152U 23004N   26153.01554703  .00000046  00000+0  84675-4 0  9992
2 55152  87.9156 338.4896 0001563 119.4147 240.7142 13.18687341167690
