[{"OBJECT_NAME":"ONEWEB-0685","OBJECT_ID":"2022-166AP","EPOCH":"2026-06-02T17:03:04.233024","MEAN_MOTION":13.21819562,"ECCENTRICITY":0.0002057,"INCLINATION":87.9253,"RA_OF_ASC_NODE":246.8614,"ARG_OF_PERICENTER":91.8632,"MEAN_ANOMALY":268.2738,"EPHEMERIS_TYPE":0,"CLASSIFICATION_TYPE":"U","NORAD_CAT_ID":54679,"ELEMENT_SET_NO":999,"REV_AT_EPOCH":16950,"BSTAR":-8.7688e-05,"MEAN_MOTION_DOT":-2.3e-07,"MEAN_MOTION_DDOT":0.0},{"OBJECT_NAME":"ONEWEB-0712","OBJECT_ID":"2022-166AQ","EPOCH":"2026-06-02T16:43:05.414016","MEAN_MOTION":13.16593633,"ECCENTRICITY":0.0001799,"INCLINATION":87.9107,"RA_OF_ASC_NODE":231.6514,"ARG_OF_PERICENTER":86.3754,"MEAN_ANOMALY":273.7583,"EPHEMERIS_TYPE":0,"CLASSIFICATION_TYPE":"U","NORAD_CAT_ID":54680,"ELEMENT_SET_NO":999,"REV_AT_EPOCH":17015,"BSTAR":-7.8664e-05,"MEAN_MOTION_DOT":-1.7e-07,"MEAN_MOTION_DDOT":0.0},{"OBJECT_NAME":"ONEWEB-0714","OBJECT_ID":"2022-166AR","EPOCH":"2026-06-02T17:09:58.883904","MEAN_MOTION":13.21816919,"ECCENTRICITY":0.0001979,"INCLINATION":87.9261,"RA_OF_ASC_NODE":246.8566,"ARG_OF_PERICENTER":92.9373,"MEAN_ANOMALY":267.1987,"EPHEMERIS_TYPE":0,"CLASSIFICATION_TYPE":"U","NORAD_CAT_ID":54681,"ELEMENT_SET_NO":999,"REV_AT_EPOCH":16962,"BSTAR":-0.0027879,"MEAN_MOTION_DOT":-1.138e-05,"MEAN_MOTION_DDOT":0.0},{"OBJECT_NAME":"ONEWEB-0532","OBJECT_ID":"2023-004A","EPOCH":"2026-06-02T03:35:46.707360","MEAN_MOTION":13.17647984,"ECCENTRICITY":0.0002117,"INCLINATION":87.9144,"RA_OF_ASC_NODE":8.8558,"ARG_OF_PERICENTER":92.3929,"MEAN_ANOMALY":267.7445,"EPHEMERIS_TYPE":0,"CLASSIFICATION_TYPE":"U","NORAD_CAT_ID":55140,"ELEMENT_SET_NO":999,"REV_AT_EPOCH":16560,"BSTAR":0.00017614,"MEAN_MOTION_DOT":8.1e-07,"MEAN_MOTION_DDOT":0.0},{"OBJECT_NAME":"ONEWEB-0533","OBJECT_ID":"2023-004B","EPOCH":"2026-06-01T14:24:06.722784","MEAN_MOTION":13.12443718,"ECCENTRICITY":0.0001949,"INCLINATION":87.8949,"RA_OF_ASC_NODE":353.7712,"ARG_OF_PERICENTER":83.5835,"MEAN_ANOMALY":276.5516,"EPHEMERIS_TYPE":0,"CLASSIFICATION_TYPE":"U","NORAD_CAT_ID":55141,"ELEMENT_SET_NO":999,"REV_AT_EPOCH":16601,"BSTAR":-0.00038623000000000005,"MEAN_MOTION_DOT":-1.26e-06,"MEAN_MOTION_DDOT":0.0},{"OBJECT_NAME":"ONEWEB-0541","OBJECT_ID":"2023-004C","EPOCH":"2026-06-02T16:27:43.566624","MEAN_MOTION":13.1141938,"ECCENTRICITY":0.0001786,"INCLINATION":87.891,"RA_OF_ASC_NODE":23.9432,"ARG_OF_PERICENTER":89.7104,"MEAN_ANOMALY":270.4229,"EPHEMERIS_TYPE":0,"CLASSIFICATION_TYPE":"U","NORAD_CAT_ID":55142,"ELEMENT_SET_NO":999,"REV_AT_EPOCH":16404,"BSTAR":5.4236e-05,"MEAN_MOTION_DOT":3.2e-07,"MEAN_MOTION_DDOT":0.0},{"OBJECT_NAME":"ONEWEB-0543","OBJECT_ID":"2023-004D","EPOCH":"2026-06-02T01:32:48.052320","MEAN_MOTION":13.18689179,"ECCENTRICITY":0.0001648,"INCLINATION":87.9155,"RA_OF_ASC_NODE":338.4802,"ARG_OF_PERICENTER":84.6394,"MEAN_ANOMALY":275.4926,"EPHEMERIS_TYPE":0,"CLASSIFICATION_TYPE":"U","NORAD_CAT_ID":55143,"ELEMENT_SET_NO":999,"REV_AT_EPOCH":16770,"BSTAR":0.00022156,"MEAN_MOTION_DOT":1e-06,"MEAN_MOTION_DDOT":0.0},{"OBJECT_NAME":"ONEWEB-0544","OBJECT_ID":"2023-004E","EPOCH":"2026-06-01T12:38:15.425952","MEAN_MOTION":13.18686473,"ECCENTRICITY":0.0001629,"INCLINATION":87.9156,"RA_OF_ASC_NODE":338.5871,"ARG_OF_PERICENTER":94.4759,"MEAN_ANOMALY":265.6559,"EPHEMERIS_TYPE":0,"CLASSIFICATION_TYPE":"U","NORAD_CAT_ID":55144,"ELEMENT_SET_NO":999,"REV_AT_EPOCH":16763,"BSTAR":0.0001409,"MEAN_MOTION_DOT":6.8e-07,"MEAN_MOTION_DDOT":0.0},{"OBJECT_NAME":"ONEWEB-0560","OBJECT_ID":"2023-004F","EPOCH":"2026-06-01T12:28:33.065760","MEAN_MOTION":13.18685814,"ECCENTRICITY":0.0001537,"INCLINATION":87.9157,"RA_OF_ASC_NODE":338.5777,"ARG_OF_PERICENTER":90.0705,"MEAN_ANOMALY":270.0603,"EPHEMERIS_TYPE":0,"CLASSIFICATION_TYPE":"U","NORAD_CAT_ID":55145,"ELEMENT_SET_NO":999,"REV_AT_EPOCH":16764,"BSTAR":3.7853e-05,"MEAN_MOTION_DOT":2.8e-07,"MEAN_MOTION_DDOT":0.0},{"OBJECT_NAME":"ONEWEB-0565","OBJECT_ID":"2023-004G","EPOCH":"2026-06-01T10:29:33.794016","MEAN_MOTION":13.18686501,"ECCENTRICITY":0.0001749,"INCLINATION":87.9147,"RA_OF_ASC_NODE":338.6235,"ARG_OF_PERICENTER":105.2566,"MEAN_ANOMALY":254.876,"EPHEMERIS_TYPE":0,"CLASSIFICATION_TYPE":"U","NORAD_CAT_ID":55146,"ELEMENT_SET_NO":999,"REV_AT_EPOCH":16762,"BSTAR":0.00011627999999999999,"MEAN_MOTION_DOT":5.9e-07,"MEAN_MOTION_DDOT":0.0},{"OBJECT_NAME":"ONEWEB-0567","OBJECT_ID":"2023-004H","EPOCH":"2026-06-02T00:53:57.382080","MEAN_MOTION":13.18686072,"ECCENTRICITY":0.0001625,"INCLINATION":87.9154,"RA_OF_ASC_NODE":338.4866,"ARG_OF_PERICENTER":101.6647,"MEAN_ANOMALY":258.4668,"EPHEMERIS_TYPE":0,"CLASSIFICATION_TYPE":"U","NORAD_CAT_ID":55147,"ELEMENT_SET_NO":999,"REV_AT_EPOCH":16770,"BSTAR":-0.00012254,"MEAN_MOTION_DOT":-3.5e-07,"MEAN_MOTION_DDOT":0.0},{"OBJECT_NAME":"ONEWEB-0569","OBJECT_ID":"2023-004J","EPOCH":"2026-06-01T11:13:45.611328","MEAN_MOTION":13.13468755,"ECCENTRICITY":9.54e-05,"INCLINATION":87.8952,"RA_OF_ASC_NODE":323.3497,"ARG_OF_PERICENTER":109.2321,"MEAN_ANOMALY":250.8911,"EPHEMERIS_TYPE":0,"CLASSIFICATION_TYPE":"U","NORAD_CAT_ID":55148,"ELEMENT_SET_NO":999,"REV_AT_EPOCH":16811,"BSTAR":0.00088754,"MEAN_MOTION_DOT":3.37e-06,"MEAN_MOTION_DDOT":0.0},{"OBJECT_NAME":"ONEWEB-0570","OBJECT_ID":"2023-004K","EPOCH":"2026-06-02T00:41:48.042528","MEAN_MOTION":13.18688403,"ECCENTRICITY":0.000212,"INCLINATION":87.9155,"RA_OF_ASC_NODE":338.4866,"ARG_OF_PERICENTER":98.2698,"MEAN_ANOMALY":261.8674,"EPHEMERIS_TYPE":0,"CLASSIFICATION_TYPE":"U","NORAD_CAT_ID":55149,"ELEMENT_SET_NO":999,"REV_AT_EPOCH":16769,"BSTAR":5.266300000000001e-05,"MEAN_MOTION_DOT":3.4e-07,"MEAN_MOTION_DDOT":0.0},{"OBJECT_NAME":"ONEWEB-0571","OBJECT_ID":"2023-004L","EPOCH":"2026-06-02T00:32:05.361792","MEAN_MOTION":13.18688189,"ECCENTRICITY":0.0001481,"INCLINATION":87.9154,"RA_OF_ASC_NODE":338.4871,"ARG_OF_PERICENTER":131.6352,"MEAN_ANOMALY":228.4907,"EPHEMERIS_TYPE":0,"CLASSIFICATION_TYPE":"U","NORAD_CAT_ID":55150,"ELEMENT_SET_NO":999,"REV_AT_EPOCH":16770,"BSTAR":7.136200000000001e-05,"MEAN_MOTION_DOT":4.1e-07,"MEAN_MOTION_DDOT":0.0},{"OBJECT_NAME":"ONEWEB-0572","OBJECT_ID":"2023-004M","EPOCH":"2026-06-02T02:30:09.766080","MEAN_MOTION":13.1764856,"ECCENTRICITY":0.0001763,"INCLINATION":87.9142,"RA_OF_ASC_NODE":8.8661,"ARG_OF_PERICENTER":92.9128,"MEAN_ANOMALY":267.2205,"EPHEMERIS_TYPE":0,"CLASSIFICATION_TYPE":"U","NORAD_CAT_ID":55151,"ELEMENT_SET_NO":999,"REV_AT_EPOCH":16549,"BSTAR":-0.0003339,"MEAN_MOTION_DOT":-1.17e-06,"MEAN_MOTION_DDOT":0.0},{"OBJECT_NAME":"ONEWEB-0573","OBJECT_ID":"2023-004N","EPOCH":"2026-06-02T00:22:23.263392","MEAN_MOTION":13.18687341,"ECCENTRICITY":0.0001563,"INCLINATION":87.9156,"RA_OF_ASC_NODE":338.4896,"ARG_OF_PERICENTER":119.4147,"MEAN_ANOMALY":240.7142,"EPHEMERIS_TYPE":0,"CLASSIFICATION_TYPE":"U","NORAD_CAT_ID":55152,"ELEMENT_SET_NO":999,"REV_AT_EPOCH":16769,"BSTAR":8.4675e-05,"MEAN_MOTION_DOT":4.6e-07,"MEAN_MOTION_DDOT":0.0}]